NORAD_CAT_ID,OBJECT_NAME,OBJECT_TYPE,EPOCH,MEAN_MOTION,ECCENTRICITY,INCLINATION,RA_OF_ASC_NODE,ARG_OF_PERICENTER,MEAN_ANOMALY,BSTAR,MEAN_MOTION_DOT,MEAN_MOTION_DDOT,TLE_LINE0,TLE_LINE1,TLE_LINE2,SEMIMAJOR_AXIS,PERIOD,APOGEE,PERIGEE,DECAYED
50815.0,STARLINK-3234,PAYLOAD,2022-11-01 14:25:18,15.08837748,0.0002230999999999,53.2195,264.2783,41.4594,318.6567,-4.7579e-05,-1.045e-05,0.0,0 STARLINK-3234,1 50815U 22001N   22305.60090496 -.00001045  00000-0 -47579-4 0  9998,2 50815  53.2195 264.2783 0002231  41.4594 318.6567 15.08837748 45616,6917.887,95.438,541.2959999999998,538.2090000000002,0.0
50815.0,STARLINK-3234,PAYLOAD,2022-11-02 03:08:22,15.08839181,0.0002230999999999,53.219,261.9002,35.8522,324.2619,0.00016423,2.326e-05,0.0,0 STARLINK-3234,1 50815U 22001N   22306.13082144  .00002326  00000-0  16423-3 0  9992,2 50815  53.2190 261.9002 0002231  35.8522 324.2619 15.08839181 46960,6917.8830000000025,95.438,541.2909999999998,538.205,0.0
50815.0,STARLINK-3234,PAYLOAD,2022-11-02 06:19:09,15.08834381,0.0002554,53.2195,261.3045,32.7968,327.3183,1.4736e-05,-5.4e-07,0.0,0 STARLINK-3234,1 50815U 22001N   22306.26330919 -.00000054  00000-0  14736-4 0  9995,2 50815  53.2195 261.3045 0002554  32.7968 327.3183 15.08834381 45713,6917.898,95.438,541.529,537.996,0.0
50815.0,STARLINK-3234,PAYLOAD,2022-11-02 14:16:05,15.08831712,0.0002467,53.2191,259.8172,34.5262,325.589,5.3567e-05,5.64e-06,0.0,0 STARLINK-3234,1 50815U 22001N   22306.59451073  .00000564  00000-0  53567-4 0  9996,2 50815  53.2191 259.8172 0002467  34.5262 325.5890 15.08831712 45767,6917.906,95.438,541.477,538.064,0.0
50815.0,STARLINK-3234,PAYLOAD,2022-11-03 04:34:34,15.0882757,0.0002508,53.2193,257.1406,35.5807,324.5352,-9.2523e-06,-4.36e-06,0.0,0 STARLINK-3234,1 50815U 22001N   22307.19068151 -.00000436  00000-0 -92523-5 0  9990,2 50815  53.2193 257.1406 0002508  35.5807 324.5352 15.08827570 47123,6917.918000000002,95.438,541.518,538.048,0.0
50815.0,STARLINK-3234,PAYLOAD,2022-11-03 20:28:24,15.08851086,0.0002623,53.2203,254.1693,34.6938,325.4225,0.00011884,1.604e-05,0.0,0 STARLINK-3234,1 50815U 22001N   22307.85306371  .00001604  00000-0  11884-3 0  9997,2 50815  53.2203 254.1693 0002623  34.6938 325.4225 15.08851086 45950,6917.847,95.437,541.526,537.8969999999998,0.0
50815.0,STARLINK-3234,PAYLOAD,2022-11-04 02:49:57,15.08857788,0.0002056,53.2179,252.977,35.0947,325.0181,0.00030049,4.5e-05,0.0,0 STARLINK-3234,1 50815U 22001N   22308.11802161  .00004500  00000-0  30049-3 0  9997,2 50815  53.2179 252.9770 0002056  35.0947 325.0181 15.08857788 47267,6917.826,95.436,541.113,538.269,0.0
50815.0,STARLINK-3234,PAYLOAD,2022-11-04 20:19:11,15.08853764,0.0002457,53.2182,249.7072,37.2968,322.8194,0.00038834,5.9e-05,0.0,0 STARLINK-3234,1 50815U 22001N   22308.84666114  .00005900  00000-0  38834-3 0  9998,2 50815  53.2182 249.7072 0002457  37.2968 322.8194 15.08853764 47373,6917.8380000000025,95.437,541.403,538.004,0.0
50815.0,STARLINK-3234,PAYLOAD,2022-11-05 05:51:30,15.08842559,0.0002165,53.2194,247.9219,27.9636,332.1472,-1.4115999999999992e-05,-5.13e-06,0.0,0 STARLINK-3234,1 50815U 22001N   22309.24409842 -.00000513  00000-0 -14116-4 0  9991,2 50815  53.2194 247.9219 0002165  27.9636 332.1472 15.08842559 46162,6917.873000000001,95.437,541.235,538.24,0.0
50815.0,STARLINK-3234,PAYLOAD,2022-11-06 04:06:56,15.08815918,0.0002346,53.2178,243.7589,32.1489,327.9646,-0.00032311,-5.424e-05,0.0,0 STARLINK-3234,1 50815U 22001N   22310.17148441 -.00005424  00000-0 -32311-3 0  9992,2 50815  53.2178 243.7589 0002346  32.1489 327.9646 15.08815918 47573,6917.954000000002,95.439,541.442,538.196,0.0
50815.0,STARLINK-3234,PAYLOAD,2022-11-06 07:17:42,15.08821922,0.0002297,53.2181,243.1643,34.6467,325.4674,-0.000236,-4.041e-05,0.0,0 STARLINK-3234,1 50815U 22001N   22310.30396586 -.00004041  00000-0 -23600-3 0  9997,2 50815  53.2181 243.1643 0002297  34.6467 325.4674 15.08821922 46328,6917.936,95.439,541.39,538.212,0.0
50815.0,STARLINK-3234,PAYLOAD,2022-11-07 02:22:20,15.08837913,0.0002341,53.2183,239.5964,33.7922,326.3219,0.00037152,5.629e-05,0.0,0 STARLINK-3234,1 50815U 22001N   22311.09884692  .00005629  00000-0  37152-3 0  9992,2 50815  53.2183 239.5964 0002341  33.7922 326.3219 15.08837913 47717,6917.887,95.438,541.371,538.132,0.0
50815.0,STARLINK-3234,PAYLOAD,2022-11-07 19:51:35,15.0884326,0.0002358,53.2183,236.3257,34.1769,325.9375,0.00051165,7.865e-05,0.0,0 STARLINK-3234,1 50815U 22001N   22311.82749252  .00007865  00000-0  51165-3 0  9999,2 50815  53.2183 236.3257 0002358  34.1769 325.9375 15.08843260 47821,6917.87,95.437,541.367,538.104,0.0
50815.0,STARLINK-3234,PAYLOAD,2022-11-08 05:23:53,15.08863136,0.0002343,53.2184,234.5413,36.7643,323.3509,0.00065384,0.0001014,0.0,0 STARLINK-3234,1 50815U 22001N   22312.22492448  .00010140  00000-0  65384-3 0  9994,2 50815  53.2184 234.5413 0002343  36.7643 323.3509 15.08863136 47880,6917.81,95.436,541.2959999999998,538.054,0.0
50815.0,STARLINK-3234,PAYLOAD,2022-11-09 11:36:11,15.08848679,0.0002841,53.2191,228.8904,44.3859,315.736,-0.00034029,-5.702e-05,0.0,0 STARLINK-3234,1 50815U 22001N   22313.48346902 -.00005702  00000-0 -34029-3 0  9998,2 50815  53.2191 228.8904 0002841  44.3859 315.7360 15.08848679 46802,6917.854,95.437,541.684,537.753,0.0
50815.0,STARLINK-3234,PAYLOAD,2022-11-10 11:26:59,15.08824923,0.0002245,53.2176,224.4304,34.7565,325.3573,0.00017796,2.544e-05,0.0,0 STARLINK-3234,1 50815U 22001N   22314.47707540  .00002544  00000-0  17796-3 0  9998,2 50815  53.2176 224.4304 0002245  34.7565 325.3573 15.08824923 46951,6917.926,95.439,541.345,538.238,0.0
50815.0,STARLINK-3234,PAYLOAD,2022-11-10 17:48:32,15.08819424,0.0002354,53.2153,223.2427,36.3891,323.7261,0.00021134,3.075e-05,0.0,0 STARLINK-3234,1 50815U 22001N   22314.74203997  .00003075  00000-0  21134-3 0  9996,2 50815  53.2153 223.2427 0002354  36.3891 323.7261 15.08819424 48262,6917.943,95.439,541.437,538.18,0.0
50815.0,STARLINK-3234,PAYLOAD,2022-11-11 03:20:51,15.08822902,0.0002237,53.2176,221.4576,39.4639,320.6516,-0.00019272,-3.353e-05,0.0,0 STARLINK-3234,1 50815U 22001N   22315.13948573 -.00003353  00000-0 -19272-3 0  9997,2 50815  53.2176 221.4576 0002237  39.4639 320.6516 15.08822902 47056,6917.933000000001,95.439,541.345,538.25,0.0
50815.0,STARLINK-3234,PAYLOAD,2022-11-12 03:11:38,15.08850687,0.0002407,53.2171,216.9974,39.8332,320.2837,0.00071417,0.000111,0.0,0 STARLINK-3234,1 50815U 22001N   22316.13308689  .00011100  00000-0  71417-3 0  9992,2 50815  53.2171 216.9974 0002407  39.8332 320.2837 15.08850687 48475,6917.848000000001,95.437,541.378,538.048,0.0
50815.0,STARLINK-3234,PAYLOAD,2022-11-12 20:40:52,15.08856132,0.0002469,53.2169,213.7268,39.4252,320.692,0.00034021,5.133e-05,0.0,0 STARLINK-3234,1 50815U 22001N   22316.86172073  .00005133  00000-0  34021-3 0  9997,2 50815  53.2169 213.7268 0002469  39.4252 320.6920 15.08856132 47318,6917.831,95.437,541.404,537.988,0.0
50815.0,STARLINK-3234,PAYLOAD,2022-11-13 03:02:25,15.08855036,0.0002487,53.2171,212.5376,38.7004,321.4166,0.00019051,2.746e-05,0.0,0 STARLINK-3234,1 50815U 22001N   22317.12667873  .00002746  00000-0  19051-3 0  9997,2 50815  53.2171 212.5376 0002487  38.7004 321.4166 15.08855036 48623,6917.834,95.437,541.42,537.979,0.0
50815.0,STARLINK-3234,PAYLOAD,2022-11-13 17:20:53,15.08835624,0.0002304,53.2168,209.8612,42.1721,317.9448,-0.00018087,-3.166e-05,0.0,0 STARLINK-3234,1 50815U 22001N   22317.72284451 -.00003166  00000-0 -18087-3 0  9997,2 50815  53.2168 209.8612 0002304  42.1721 317.9448 15.08835624 48718,6917.894,95.438,541.3530000000002,538.165,0.0
50815.0,STARLINK-3234,PAYLOAD,2022-11-14 09:14:46,15.0882417,0.0002413,53.2172,206.8882,32.1686,327.9453,-0.00018877,-3.2899999999999987e-05,0.0,0 STARLINK-3234,1 50815U 22001N   22318.38525720 -.00003290  00000-0 -18877-3 0  9992,2 50815  53.2172 206.8882 0002413  32.1686 327.9453 15.08824170 48811,6917.929,95.439,541.4630000000002,538.124,0.0
50815.0,STARLINK-3234,PAYLOAD,2022-11-15 09:05:33,15.08837668,0.0002461,53.2173,202.4285,37.3999,322.7164,0.00034019,5.13e-05,0.0,0 STARLINK-3234,1 50815U 22001N   22319.37886264  .00005130  00000-0  34019-3 0  9994,2 50815  53.2173 202.4285 0002461  37.3999 322.7164 15.08837668 47691,6917.888000000001,95.438,541.455,538.05,0.0
50815.0,STARLINK-3234,PAYLOAD,2022-11-15 15:27:06,15.08844015,0.0002474,53.2171,201.2389,37.35,322.7664,0.0005992,9.262e-05,0.0,0 STARLINK-3234,1 50815U 22001N   22319.64382402  .00009262  00000-0  59920-3 0  9997,2 50815  53.2171 201.2389 0002474  37.3500 322.7664 15.08844015 49009,6917.868,95.437,541.445,538.0219999999998,0.0
50815.0,STARLINK-3234,PAYLOAD,2022-11-15 20:13:15,15.08857182,0.0002434,53.2169,200.3471,38.3506,321.7659,0.0007379,0.00011481,0.0,0 STARLINK-3234,1 50815U 22001N   22319.84254079  .00011481  00000-0  73790-3 0  9994,2 50815  53.2169 200.3471 0002434  38.3506 321.7659 15.08857182 47764,6917.828,95.436,541.377,538.009,0.0
50815.0,STARLINK-3234,PAYLOAD,2022-11-15 23:24:01,15.08855451,0.0002486,53.2172,199.7521,37.3134,322.8031,0.00055365,8.538e-05,0.0,0 STARLINK-3234,1 50815U 22001N   22319.97502018  .00008538  00000-0  55365-3 0  9994,2 50815  53.2172 199.7521 0002486  37.3134 322.8031 15.08855451 47783,6917.833000000001,95.437,541.418,537.9780000000002,0.0
50815.0,STARLINK-3234,PAYLOAD,2022-11-16 23:14:48,15.08851273,0.0002561,53.2172,195.2918,39.7436,320.3743,0.00017313,2.469e-05,0.0,0 STARLINK-3234,1 50815U 22001N   22320.96861575  .00002469  00000-0  17313-3 0  9999,2 50815  53.2172 195.2918 0002561  39.7436 320.3743 15.08851273 49209,6917.846,95.437,541.4830000000002,537.939,0.0
50815.0,STARLINK-3234,PAYLOAD,2022-11-18 00:40:58,15.08845958,0.0002845,53.2179,190.5327,45.6638,314.4587,9.2276e-05,1.181e-05,0.0,0 STARLINK-3234,1 50815U 22001N   22322.02845575  .00001181  00000-0  92276-4 0  9992,2 50815  53.2179 190.5327 0002845  45.6638 314.4587 15.08845958 49363,6917.861999999999,95.437,541.695,537.759,0.0
